{"type": "FeatureCollection", "features": [ {"type": "Feature", "properties": {"norad_id": 38755, "name": "SPOT 6", "group": "resource", "lat": -23.882970353712384, "lon": -141.7783069705923, "alt_km": 703.4367590813918, "timestamp": "2025-12-02T21:34:00.930046+00:00", "meta": {"OBJECT_NAME": "SPOT 6", "OBJECT_ID": "2012-047A", "EPOCH": "2025-12-02T12:24:08.875296", "MEAN_MOTION": 14.5858731, "ECCENTRICITY": 0.0001037, "INCLINATION": 98.1586, "RA_OF_ASC_NODE": 41.4888, "ARG_OF_PERICENTER": 99.8521, "MEAN_ANOMALY": 260.2796, "EPHEMERIS_TYPE": 0, "CLASSIFICATION_TYPE": "U", "NORAD_CAT_ID": 38755, "ELEMENT_SET_NO": 999, "REV_AT_EPOCH": 70438, "BSTAR": 0.0001351, "MEAN_MOTION_DOT": 5.83e-06, "MEAN_MOTION_DDOT": 0}, "tle": {"line1": "1 38755U 12047A   25336.51676939  .00000583  00000+0  13510-3 0  9995", "line2": "2 38755  98.1586  41.4888 0001037  99.8521 260.2796 14.58587310704381"}}, "geometry": {"type": "Point", "coordinates": [-141.7783069705923, -23.882970353712384]}}, {"type": "Feature", "properties": {"norad_id": 39019, "name": "PLEIADES 1B", "group": "resource", "lat": 73.49769431402683, "lon": -101.2453816365651, "alt_km": 690.0029153641317, "timestamp": "2025-12-02T21:34:00.930057+00:00", "meta": {"OBJECT_NAME": "PLEIADES 1B", "OBJECT_ID": "2012-068A", "EPOCH": "2025-12-02T11:12:41.558688", "MEAN_MOTION": 14.58536455, "ECCENTRICITY": 0.0001264, "INCLINATION": 98.1806, "RA_OF_ASC_NODE": 49.2806, "ARG_OF_PERICENTER": 88.1106, "MEAN_ANOMALY": 272.0238, "EPHEMERIS_TYPE": 0, "CLASSIFICATION_TYPE": "U", "NORAD_CAT_ID": 39019, "ELEMENT_SET_NO": 999, "REV_AT_EPOCH": 69217, "BSTAR": 0.00013737, "MEAN_MOTION_DOT": 5.93e-06, "MEAN_MOTION_DDOT": 0}, "tle": {"line1": "1 39019U 12068A   25336.46714767  .00000593  00000+0  13737-3 0  9990", "line2": "2 39019  98.1806  49.2806 0001264  88.1106 272.0238 14.58536455692177"}}, "geometry": {"type": "Point", "coordinates": [-101.2453816365651, 73.49769431402683]}}, {"type": "Feature", "properties": {"norad_id": 39030, "name": "GOKTURK 2", "group": "resource", "lat": 82.05882593170472, "lon": 103.424733522676, "alt_km": 636.2823631657793, "timestamp": "2025-12-02T21:34:00.930067+00:00", "meta": {"OBJECT_NAME": "GOKTURK 2", "OBJECT_ID": "2012-073A", "EPOCH": "2025-12-02T13:01:49.298016", "MEAN_MOTION": 14.75267921, "ECCENTRICITY": 7.94e-05, "INCLINATION": 97.69, "RA_OF_ASC_NODE": 178.6975, "ARG_OF_PERICENTER": 92.9463, "MEAN_ANOMALY": 267.1838, "EPHEMERIS_TYPE": 0, "CLASSIFICATION_TYPE": "U", "NORAD_CAT_ID": 39030, "ELEMENT_SET_NO": 999, "REV_AT_EPOCH": 69551, "BSTAR": 0.00014121, "MEAN_MOTION_DOT": 9.09e-06, "MEAN_MOTION_DDOT": 0}, "tle": {"line1": "1 39030U 12073A   25336.54293169  .00000909  00000+0  14121-3 0  9995", "line2": "2 39030  97.6900 178.6975 0000794  92.9463 267.1838 14.75267921695519"}}, "geometry": {"type": "Point", "coordinates": [103.424733522676, 82.05882593170472]}}, {"type": "Feature", "properties": {"norad_id": 39084, "name": "LANDSAT 8", "group": "resource", "lat": -34.53287218464328, "lon": 50.81739543280882, "alt_km": 709.1077297093188, "timestamp": "2025-12-02T21:34:00.930077+00:00", "meta": {"OBJECT_NAME": "LANDSAT 8", "OBJECT_ID": "2013-008A", "EPOCH": "2025-12-02T11:50:19.106880", "MEAN_MOTION": 14.57123781, "ECCENTRICITY": 0.000108, "INCLINATION": 98.2085, "RA_OF_ASC_NODE": 44.7174, "ARG_OF_PERICENTER": 88.6347, "MEAN_ANOMALY": 271.4976, "EPHEMERIS_TYPE": 0, "CLASSIFICATION_TYPE": "U", "NORAD_CAT_ID": 39084, "ELEMENT_SET_NO": 999, "REV_AT_EPOCH": 66925, "BSTAR": 0.00014508, "MEAN_MOTION_DOT": 6.09e-06, "MEAN_MOTION_DDOT": 0}, "tle": {"line1": "1 39084U 13008A   25336.49327670  .00000609  00000+0  14508-3 0  9998", "line2": "2 39084  98.2085  44.7174 0001080  88.6347 271.4976 14.57123781669253"}}, "geometry": {"type": "Point", "coordinates": [50.81739543280882, -34.53287218464328]}}, {"type": "Feature", "properties": {"norad_id": 39086, "name": "SARAL", "group": "resource", "lat": 81.1604512597591, "lon": 56.29521985136907, "alt_km": 773.573649887403, "timestamp": "2025-12-02T21:34:00.930087+00:00", "meta": {"OBJECT_NAME": "SARAL", "OBJECT_ID": "2013-009A", "EPOCH": "2025-12-02T11:04:54.399936", "MEAN_MOTION": 14.32751162, "ECCENTRICITY": 0.0002593, "INCLINATION": 98.5506, "RA_OF_ASC_NODE": 160.5261, "ARG_OF_PERICENTER": 128.5093, "MEAN_ANOMALY": 231.6324, "EPHEMERIS_TYPE": 0, "CLASSIFICATION_TYPE": "U", "NORAD_CAT_ID": 39086, "ELEMENT_SET_NO": 999, "REV_AT_EPOCH": 66743, "BSTAR": 9.1303e-05, "MEAN_MOTION_DOT": 2.05e-06, "MEAN_MOTION_DDOT": 0}, "tle": {"line1": "1 39086U 13009A   25336.46174074  .00000205  00000+0  91303-4 0  9997", "line2": "2 39086  98.5506 160.5261 0002593 128.5093 231.6324 14.32751162667438"}}, "geometry": {"type": "Point", "coordinates": [56.29521985136907, 81.1604512597591]}}, {"type": "Feature", "properties": {"norad_id": 39150, "name": "GAOFEN-1", "group": "resource", "lat": 57.23062655727422, "lon": -119.75619536532831, "alt_km": 627.285636803641, "timestamp": "2025-12-02T21:34:00.930097+00:00", "meta": {"OBJECT_NAME": "GAOFEN-1", "OBJECT_ID": "2013-018A", "EPOCH": "2025-12-02T12:53:02.901696", "MEAN_MOTION": 14.76504154, "ECCENTRICITY": 0.0017588, "INCLINATION": 97.9339, "RA_OF_ASC_NODE": 47.376, "ARG_OF_PERICENTER": 175.078, "MEAN_ANOMALY": 185.0606, "EPHEMERIS_TYPE": 0, "CLASSIFICATION_TYPE": "U", "NORAD_CAT_ID": 39150, "ELEMENT_SET_NO": 999, "REV_AT_EPOCH": 67922, "BSTAR": 0.00017196, "MEAN_MOTION_DOT": 1.15e-05, "MEAN_MOTION_DDOT": 0}, "tle": {"line1": "1 39150U 13018A   25336.53683914  .00001150  00000+0  17196-3 0  9992", "line2": "2 39150  97.9339  47.3760 0017588 175.0780 185.0606 14.76504154679223"}}, "geometry": {"type": "Point", "coordinates": [-119.75619536532831, 57.23062655727422]}}, {"type": "Feature", "properties": {"norad_id": 39160, "name": "VNREDSAT 1", "group": "resource", "lat": -54.499380130996286, "lon": -158.76356539844542, "alt_km": 685.2932112580129, "timestamp": "2025-12-02T21:34:00.930108+00:00", "meta": {"OBJECT_NAME": "VNREDSAT 1", "OBJECT_ID": "2013-021B", "EPOCH": "2025-12-02T12:17:59.598240", "MEAN_MOTION": 14.64897455, "ECCENTRICITY": 0.0001382, "INCLINATION": 97.9388, "RA_OF_ASC_NODE": 32.1453, "ARG_OF_PERICENTER": 84.1199, "MEAN_ANOMALY": 276.0162, "EPHEMERIS_TYPE": 0, "CLASSIFICATION_TYPE": "U", "NORAD_CAT_ID": 39160, "ELEMENT_SET_NO": 999, "REV_AT_EPOCH": 67149, "BSTAR": 0.00019865, "MEAN_MOTION_DOT": 1.016e-05, "MEAN_MOTION_DDOT": 0}, "tle": {"line1": "1 39160U 13021B   25336.51249535  .00001016  00000+0  19865-3 0  9998", "line2": "2 39160  97.9388  32.1453 0001382  84.1199 276.0162 14.64897455671493"}}, "geometry": {"type": "Point", "coordinates": [-158.76356539844542, -54.499380130996286]}}, {"type": "Feature", "properties": {"norad_id": 39227, "name": "ARIRANG-5 (KOMPSAT-5)", "group": "resource", "lat": -7.060230759029279, "lon": 162.29228248264548, "alt_km": 556.9476391317439, "timestamp": "2025-12-02T21:34:00.930118+00:00", "meta": {"OBJECT_NAME": "ARIRANG-5 (KOMPSAT-5)", "OBJECT_ID": "2013-042A", "EPOCH": "2025-12-02T12:01:16.355136", "MEAN_MOTION": 15.04498217, "ECCENTRICITY": 0.0004353, "INCLINATION": 97.6159, "RA_OF_ASC_NODE": 160.9508, "ARG_OF_PERICENTER": 83.8481, "MEAN_ANOMALY": 276.3241, "EPHEMERIS_TYPE": 0, "CLASSIFICATION_TYPE": "U", "NORAD_CAT_ID": 39227, "ELEMENT_SET_NO": 999, "REV_AT_EPOCH": 67428, "BSTAR": 0.00017429, "MEAN_MOTION_DOT": 2.379e-05, "MEAN_MOTION_DDOT": 0}, "tle": {"line1": "1 39227U 13042A   25336.50088374  .00002379  00000+0  17429-3 0  9993", "line2": "2 39227  97.6159 160.9508 0004353  83.8481 276.3241 15.04498217674281"}}, "geometry": {"type": "Point", "coordinates": [162.29228248264548, -7.060230759029279]}}, {"type": "Feature", "properties": {"norad_id": 39418, "name": "SKYSAT-A", "group": "resource", "lat": 61.861032148966004, "lon": -138.5036593639047, "alt_km": 538.5913672141369, "timestamp": "2025-12-02T21:34:00.930128+00:00", "meta": {"OBJECT_NAME": "SKYSAT-A", "OBJECT_ID": "2013-066C", "EPOCH": "2025-12-02T09:55:36.940800", "MEAN_MOTION": 15.11481432, "ECCENTRICITY": 0.0020479, "INCLINATION": 97.413, "RA_OF_ASC_NODE": 26.9363, "ARG_OF_PERICENTER": 274.7664, "MEAN_ANOMALY": 85.1227, "EPHEMERIS_TYPE": 0, "CLASSIFICATION_TYPE": "U", "NORAD_CAT_ID": 39418, "ELEMENT_SET_NO": 999, "REV_AT_EPOCH": 65874, "BSTAR": 0.00029115, "MEAN_MOTION_DOT": 4.888e-05, "MEAN_MOTION_DDOT": 0}, "tle": {"line1": "1 39418U 13066C   25336.41362200  .00004888  00000+0  29115-3 0  9996", "line2": "2 39418  97.4130  26.9363 0020479 274.7664  85.1227 15.11481432658743"}}, "geometry": {"type": "Point", "coordinates": [-138.5036593639047, 61.861032148966004]}}, {"type": "Feature", "properties": {"norad_id": 39419, "name": "DUBAISAT-2", "group": "resource", "lat": 14.588424100278683, "lon": -34.338652842311284, "alt_km": 534.9918548067499, "timestamp": "2025-12-02T21:34:00.930138+00:00", "meta": {"OBJECT_NAME": "DUBAISAT-2", "OBJECT_ID": "2013-066D", "EPOCH": "2025-12-02T13:32:25.830240", "MEAN_MOTION": 15.0820021, "ECCENTRICITY": 0.0011598, "INCLINATION": 97.4443, "RA_OF_ASC_NODE": 327.2875, "ARG_OF_PERICENTER": 359.1022, "MEAN_ANOMALY": 1.0184, "EPHEMERIS_TYPE": 0, "CLASSIFICATION_TYPE": "U", "NORAD_CAT_ID": 39419, "ELEMENT_SET_NO": 999, "REV_AT_EPOCH": 65673, "BSTAR": 0.0004051, "MEAN_MOTION_DOT": 6.215e-05, "MEAN_MOTION_DDOT": 0}, "tle": {"line1": "1 39419U 13066D   25336.56418785  .00006215  00000+0  40510-3 0  9991", "line2": "2 39419  97.4443 327.2875 0011598 359.1022   1.0184 15.08200210656739"}}, "geometry": {"type": "Point", "coordinates": [-34.338652842311284, 14.588424100278683]}}]}